IRIDIUM 116             
1 43072U 17083C   23329.59591170  .00000571  00000+0  19694-3 0  9995
2 43072  86.3972 352.6191 0002144  89.0310 271.1131 14.34220895310213
IRIDIUM 130             
1 43073U 17083D   23329.56419977  .00000587  00000+0  20241-3 0  9994
2 43073  86.3982 352.8168 0002254  95.1328 265.0125 14.34220019310156
IRIDIUM 151             
1 43074U 17083E   23329.53882847  .00000597  00000+0  20596-3 0  9996
2 43074  86.3975 352.6796 0001990  89.3099 270.8325 14.34222383310174
IRIDIUM 134             
1 43075U 17083F   23329.57689047  .00000605  00000+0  20883-3 0  9997
2 43075  86.3976 352.6590 0002371  93.1036 267.0431 14.34219670310144
IRIDIUM 137             
1 43076U 17083G   23329.58957236  .00000581  00000+0  20055-3 0  9991
2 43076  86.3977 352.7280 0002232  83.2208 276.9242 14.34220055310216
IRIDIUM 141             
1 43077U 17083H   23329.58322484  .00000587  00000+0  20262-3 0  9999
2 43077  86.3973 352.6140 0002025  94.4420 265.7008 14.34221854310211
IRIDIUM 153             
1 43078U 17083J   23329.46563867  .00000364  00000+0  12289-3 0  9992
2 43078  86.3942 321.1170 0001970  98.3229 261.8190 14.34221352311303
IRIDIUM 131             
1 43079U 17083K   23329.57054919  .00000601  00000+0  20754-3 0  9998
2 43079  86.3978 352.7429 0002113  94.8684 265.2753 14.34223490310145
